OBJECT_NAME,OBJECT_ID,EPOCH,MEAN_MOTION,ECCENTRICITY,INCLINATION,RA_OF_ASC_NODE,ARG_OF_PERICENTER,MEAN_ANOMALY,EPHEMERIS_TYPE,CLASSIFICATION_TYPE,NORAD_CAT_ID,ELEMENT_SET_NO,REV_AT_EPOCH,BSTAR,MEAN_MOTION_DOT,MEAN_MOTION_DDOT
LEMUR-2-ARIANNA,2025-009CU,2026-06-14T05:27:24.793056,15.02447762,.00038838,97.6902,246.6340,124.8128,235.3462,0,U,62699,999,7711,.61208254E-3,.8061E-4,0
LEMUR-2-ALISIA,2025-009DB,2026-06-14T04:56:24.415296,15.02733534,.00016124,97.6966,247.3958,190.0884,170.0309,0,U,62706,999,9971,.56960927E-3,.7553E-4,0
LEMUR-2-ROUNDTRIPPER,2025-009DG,2026-06-14T03:58:58.294272,15.03748203,.00050183,97.7260,247.8490,140.0023,220.1573,0,U,62711,999,7717,.67513638E-3,.9213E-4,0
LEMUR-2-MYNAMEISJEFF,2025-009DH,2026-06-14T05:32:31.344576,15.03758435,.00032387,97.7307,248.2933,161.8675,198.2666,0,U,62712,999,7718,.62081015E-3,.8467E-4,0
LEMUR-2-LEIA-PHILIP,2025-052AN,2026-06-14T06:18:37.365408,14.97313853,.00022712,97.6846,57.2632,219.4333,140.6724,0,U,63246,999,6823,.12755206E-3,.1422E-4,0
LEMUR-2-LIA-MARTIN,2025-052AQ,2026-06-14T06:27:14.810688,14.97786433,.00027253,97.6913,57.7401,159.6920,200.4411,0,U,63248,999,6824,.35108198E-3,.4065E-4,0
LEMUR-2-DELOITTE-1,2025-052BB,2026-06-14T05:52:40.980000,14.97582459,.00031915,97.6925,58.0448,103.2574,256.9004,0,U,63259,999,6825,.37038847E-3,.4269E-4,0
LEMUR-2-EMERSONROSE,2025-052BD,2026-06-14T05:21:06.161472,14.99062117,.00019029,97.6898,58.5769,66.5218,293.6205,0,U,63261,999,6829,.30389854E-3,.363E-4,0
LEMUR-2-MARACHE-FRAN,2025-052BE,2026-06-14T04:48:28.430784,15.00076048,.0005677,97.6955,58.8642,33.5149,326.6433,0,U,63262,999,6831,.45823877E-3,.5654E-4,0
LEMUR-2-THEFALCONER,2025-052BG,2026-06-14T06:30:04.000896,14.97374809,.00030428,97.6881,57.6946,42.2450,317.9006,0,U,63264,999,6825,.26156732E-3,.2981E-4,0
LEMUR-2-UNTITLED-SC,2025-061A,2026-06-14T04:18:39.606048,15.13456630,.00168853,97.5629,140.5632,276.1562,83.7745,0,U,63351,999,6713,.21996984E-3,.3879E-4,0
LEMUR-2-ESPERANZA,2025-061B,2026-06-13T21:25:12.070848,15.13546416,.0016566,97.5636,140.3708,276.5984,83.3362,0,U,63352,999,6709,.24771E-3,.4387E-4,0
LEMUR-2-KREMPEL-BRO2,2025-061C,2026-06-14T04:26:06.258624,15.13986609,.00173977,97.5685,141.1907,267.0853,92.8388,0,U,63353,999,6715,.2218388E-3,.3972E-4,0
LEMUR-2-THERMORAPTOR,2025-061D,2026-06-14T04:00:30.504672,15.14064295,.00171566,97.5688,141.2481,266.0234,93.9036,0,U,63354,999,6715,.23241546E-3,.4174E-4,0
LEMUR-2-NEUROSPICY,2025-061E,2026-06-13T20:59:24.438624,15.14177631,.00150203,97.5616,140.5860,271.0399,88.9112,0,U,63355,999,6711,.27171625E-3,.4903E-4,0
LEMUR-2-TILLINFINITY,2025-061F,2026-06-14T05:47:38.802048,15.14765437,.00162348,97.5600,141.2390,256.3940,103.5484,0,U,63356,999,6719,.20882232E-3,.3817E-4,0
LEMUR-2-KREMPEL-BRO1,2025-061G,2026-06-14T05:08:54.199680,15.14571258,.00169508,97.5603,141.1291,257.9422,101.9910,0,U,63357,999,6718,.25564918E-3,.4664E-4,0
LEMUR-2-LANGER2SPACE,2025-061H,2026-06-14T05:46:12.791712,15.14268480,.00148302,97.5607,140.9700,267.7656,92.1877,0,U,63358,999,6717,.21975783E-3,.3962E-4,0
LEMUR-2-BALTO,2025-052BH,2026-06-14T06:02:25.824192,15.00058194,.00068868,97.6898,58.8951,65.5408,294.6534,0,U,63395,999,6832,.47899474E-3,.5911E-4,0
LEMUR-2-KRISH,2025-135AK,2026-06-14T06:22:18.560640,14.96182335,.0001693,97.7741,280.1616,103.3321,256.8089,0,U,64561,999,5348,.49568473E-3,.5529E-4,0
LEMUR-2-HUBBLE-4,2025-135AP,2026-06-14T06:07:00.383520,14.93189521,.00011208,97.7696,279.1965,327.4926,32.6224,0,U,64565,999,5343,.15406389E-3,.1552E-4,0
LEMUR-2-SEJONG-2,2025-135BL,2026-06-14T07:06:50.929056,14.96678084,.00040853,97.7689,280.3372,352.1992,7.9166,0,U,64586,999,5351,.32587834E-3,.3661E-4,0
LEMUR-2-HUBBLE-5,2025-135BT,2026-06-14T06:39:57.252672,14.94128888,.00053261,97.7715,279.8482,4.5787,355.5481,0,U,64840,999,5347,.15113475E-3,.1559E-4,0
LEMUR-2-KARENDARRELL,2025-135BU,2026-06-14T07:35:54.610656,15.00074352,.00094718,97.7678,281.5293,213.2214,146.8416,0,U,64841,999,5358,.61327286E-3,.7591E-4,0
LEMUR-2-LUCILLE-ROSE,2025-135BV,2026-06-14T06:58:11.244288,15.00123679,.00109312,97.7771,281.5192,294.3291,65.6791,0,U,65403,999,4820,.54064791E-3,.6695E-4,0
LEMUR-2-AFFIE-WAUWIE,2025-248C,2026-06-14T04:15:25.073856,15.27058848,.00077441,45.3886,131.2928,63.5131,296.6551,0,U,66295,999,3413,.57239362E-3,.15219E-3,0
LEMUR-2-DEANANDMAEVE,2025-276N,2026-06-14T03:42:01.261728,15.19700477,.00060068,97.4219,238.6798,24.7792,335.3731,0,U,66678,999,2995,.34846676E-3,.7378E-4,0
LEMUR-2-STAS-GORBUK,2025-276W,2026-06-14T04:01:54.128640,15.19352529,.00053916,97.4254,238.7486,25.4705,334.6795,0,U,66686,999,2995,.27525118E-3,.5753E-4,0
LEMUR-2-TEODOR,2025-276DG,2026-06-14T03:43:18.714144,15.21021305,.00020577,97.4157,238.9683,118.6510,241.4933,0,U,66768,999,2998,.2967368E-3,.6517E-4,0
