LEMUR-2-ARIANNA         
1 62699U 25009CU  26165.22737029  .00008061  00000+0  61208-3 0  9994
2 62699  97.6902 246.6340 0003883 124.8128 235.3462 15.02447762 77119
LEMUR-2-ALISIA          
1 62706U 25009DB  26165.20583814  .00007553  00000+0  56961-3 0  9997
2 62706  97.6966 247.3958 0001612 190.0884 170.0309 15.02733534 99713
LEMUR-2-ROUNDTRIPPER    
1 62711U 25009DG  26165.16595248  .00009213  00000+0  67514-3 0  9993
2 62711  97.7260 247.8490 0005018 140.0023 220.1573 15.03748203 77173
LEMUR-2-MYNAMEISJEFF    
1 62712U 25009DH  26165.23091834  .00008467  00000+0  62081-3 0  9998
2 62712  97.7307 248.2933 0003238 161.8675 198.2666 15.03758435 77186
LEMUR-2-LEIA-PHILIP     
1 63246U 25052AN  26165.26293247  .00001422  00000+0  12755-3 0  9991
2 63246  97.6846  57.2632 0002271 219.4333 140.6724 14.97313853 68232
LEMUR-2-LIA-MARTIN      
1 63248U 25052AQ  26165.26892142  .00004065  00000+0  35108-3 0  9995
2 63248  97.6913  57.7401 0002725 159.6920 200.4411 14.97786433 68246
LEMUR-2-DELOITTE-1      
1 63259U 25052BB  26165.24491875  .00004269  00000+0  37039-3 0  9994
2 63259  97.6925  58.0448 0003191 103.2574 256.9004 14.97582459 68251
LEMUR-2-EMERSONROSE     
1 63261U 25052BD  26165.22298798  .00003630  00000+0  30390-3 0  9998
2 63261  97.6898  58.5769 0001902  66.5218 293.6205 14.99062117 68299
LEMUR-2-MARACHE-FRAN    
1 63262U 25052BE  26165.20032906  .00005654  00000+0  45824-3 0  9990
2 63262  97.6955  58.8642 0005677  33.5149 326.6433 15.00076048 68311
LEMUR-2-THEFALCONER     
1 63264U 25052BG  26165.27087964  .00002981  00000+0  26157-3 0  9991
2 63264  97.6881  57.6946 0003042  42.2450 317.9006 14.97374809 68254
LEMUR-2-UNTITLED-SC     
1 63351U 25061A   26165.17962507  .00003879  00000+0  21997-3 0  9996
2 63351  97.5629 140.5632 0016885 276.1562  83.7745 15.13456630 67131
LEMUR-2-ESPERANZA       
1 63352U 25061B   26164.89250082  .00004387  00000+0  24771-3 0  9991
2 63352  97.5636 140.3708 0016566 276.5984  83.3362 15.13546416 67098
LEMUR-2-KREMPEL-BRO2    
1 63353U 25061C   26165.18479466  .00003972  00000+0  22184-3 0  9999
2 63353  97.5685 141.1907 0017397 267.0853  92.8388 15.13986609 67158
LEMUR-2-THERMORAPTOR    
1 63354U 25061D   26165.16701973  .00004174  00000+0  23242-3 0  9990
2 63354  97.5688 141.2481 0017156 266.0234  93.9036 15.14064295 67156
LEMUR-2-NEUROSPICY      
1 63355U 25061E   26164.87458841  .00004903  00000+0  27172-3 0  9997
2 63355  97.5616 140.5860 0015020 271.0399  88.9112 15.14177631 67111
LEMUR-2-TILLINFINITY    
1 63356U 25061F   26165.24142132  .00003817  00000+0  20882-3 0  9997
2 63356  97.5600 141.2390 0016234 256.3940 103.5484 15.14765437 67198
LEMUR-2-KREMPEL-BRO1    
1 63357U 25061G   26165.21451620  .00004664  00000+0  25565-3 0  9994
2 63357  97.5603 141.1291 0016950 257.9422 101.9910 15.14571258 67189
LEMUR-2-LANGER2SPACE    
1 63358U 25061H   26165.24042583  .00003962  00000+0  21976-3 0  9994
2 63358  97.5607 140.9700 0014830 267.7656  92.1877 15.14268480 67171
LEMUR-2-BALTO           
1 63395U 25052BH  26165.25168778  .00005911  00000+0  47899-3 0  9999
2 63395  97.6898  58.8951 0006886  65.5408 294.6534 15.00058194 68322
LEMUR-2-KRISH           
1 64561U 25135AK  26165.26549260  .00005529  00000+0  49568-3 0  9997
2 64561  97.7741 280.1616 0001693 103.3321 256.8089 14.96182335 53485
LEMUR-2-HUBBLE-4        
1 64565U 25135AP  26165.25486555  .00001552  00000+0  15406-3 0  9993
2 64565  97.7696 279.1965 0001120 327.4926  32.6224 14.93189521 53435
LEMUR-2-SEJONG-2        
1 64586U 25135BL  26165.29642279  .00003661  00000+0  32588-3 0  9990
2 64586  97.7689 280.3372 0004085 352.1992   7.9166 14.96678084 53516
LEMUR-2-HUBBLE-5        
1 64840U 25135BT  26165.27774598  .00001559  00000+0  15113-3 0  9990
2 64840  97.7715 279.8482 0005326   4.5787 355.5481 14.94128888 53470
LEMUR-2-KARENDARRELL    
1 64841U 25135BU  26165.31660429  .00007591  00000+0  61327-3 0  9993
2 64841  97.7678 281.5293 0009471 213.2214 146.8416 15.00074352 53583
LEMUR-2-LUCILLE-ROSE    
1 65403U 25135BV  26165.29040792  .00006695  00000+0  54065-3 0  9995
2 65403  97.7771 281.5192 0010931 294.3291  65.6791 15.00123679 48202
LEMUR-2-AFFIE-WAUWIE    
1 66295U 25248C   26165.17737354  .00015219  00000+0  57239-3 0  9992
2 66295  45.3886 131.2928 0007744  63.5131 296.6551 15.27058848 34134
LEMUR-2-DEANANDMAEVE    
1 66678U 25276N   26165.15418127  .00007378  00000+0  34847-3 0  9997
2 66678  97.4219 238.6798 0006006  24.7792 335.3731 15.19700477 29954
LEMUR-2-STAS-GORBUK     
1 66686U 25276W   26165.16798760  .00005753  00000+0  27525-3 0  9991
2 66686  97.4254 238.7486 0005391  25.4705 334.6795 15.19352529 29958
LEMUR-2-TEODOR          
1 66768U 25276DG  26165.15507771  .00006517  00000+0  29674-3 0  9997
2 66768  97.4157 238.9683 0002057 118.6510 241.4933 15.21021305 29987
